[{"OBJECT_NAME":"STARLINK-5836","OBJECT_ID":"2023-061N","EPOCH":"2026-03-09T22:00:01.999584","MEAN_MOTION":15.126966,"ECCENTRICITY":0.00017068,"INCLINATION":43,"RA_OF_ASC_NODE":195.5236,"ARG_OF_PERICENTER":302.4815,"MEAN_ANOMALY":180.1996,"EPHEMERIS_TYPE":0,"CLASSIFICATION_TYPE":"U","NORAD_CAT_ID":56386,"ELEMENT_SET_NO":999,"REV_AT_EPOCH":577,"BSTAR":0.0030278555,"MEAN_MOTION_DOT":0.00054131,"MEAN_MOTION_DDOT":0},{"OBJECT_NAME":"FENGYUN 1C DEB","OBJECT_ID":"1999-025DZE","EPOCH":"2026-02-28T06:22:54.338880","MEAN_MOTION":15.08907087,"ECCENTRICITY":0.00232464,"INCLINATION":99.4552,"RA_OF_ASC_NODE":173.2368,"ARG_OF_PERICENTER":218.3208,"MEAN_ANOMALY":141.6363,"EPHEMERIS_TYPE":0,"CLASSIFICATION_TYPE":"U","NORAD_CAT_ID":36684,"ELEMENT_SET_NO":999,"REV_AT_EPOCH":67065,"BSTAR":0.0055309563,"MEAN_MOTION_DOT":0.00088715,"MEAN_MOTION_DDOT":0}]
